     3.03           NAVIGATION DATA     MIXED               RINEX VERSION / TYPE
gfzrnx-1.11-7352    FILE MERGE          20190126 001156 UTC PGM / RUN BY / DATE 
    18                  GPS                                 LEAP SECONDS        
                                                            END OF HEADER
R08 2019 01 25 21 15 00 1.939944922924e-05 0.000000000000e+00 5.076000000000e+05
     1.881042968750e+03 1.199626922607e-01 0.000000000000e+00 0.000000000000e+00
    -2.265245996094e+04 1.587301254272e+00-3.725290298462e-09 6.000000000000e+00
    -1.152244042969e+04-3.089207649231e+00 0.000000000000e+00 0.000000000000e+00
R09 2019 01 25 06 45 00 5.080085247755e-05 1.818989403546e-12 4.571400000000e+05
    -4.953018554688e+03-1.486594200134e+00-9.313225746155e-10 0.000000000000e+00
     1.233666992188e+04-2.580882072449e+00 9.313225746155e-10-2.000000000000e+00
     2.179494140625e+04 1.117878913879e+00-2.793967723846e-09 0.000000000000e+00
R09 2019 01 25 07 15 00 5.080085247755e-05 1.818989403546e-12 4.572000000000e+05
    -8.056192382812e+03-1.938842773438e+00-9.313225746155e-10 0.000000000000e+00
     7.754619628906e+03-2.464819908142e+00 9.313225746155e-10-2.000000000000e+00
     2.294058984375e+04 1.466588973999e-01-2.793967723846e-09 0.000000000000e+00
R09 2019 01 25 07 45 00 5.080457776785e-05 1.818989403546e-12 4.590000000000e+05
    -1.182397802734e+04-2.210539817810e+00 0.000000000000e+00 0.000000000000e+00
     3.610664062500e+03-2.104436874390e+00 0.000000000000e+00-2.000000000000e+00
     2.231548437500e+04-8.369016647339e-01-2.793967723846e-09 0.000000000000e+00
R09 2019 01 25 08 15 00 5.080830305815e-05 1.818989403546e-12 4.608000000000e+05
    -1.586240527344e+04-2.230684280396e+00 0.000000000000e+00 0.000000000000e+00
     2.786259765625e+02-1.578229904175e+00 0.000000000000e+00-2.000000000000e+00
     1.996597363281e+04-1.756898880005e+00-1.862645149231e-09 0.000000000000e+00
R09 2019 01 25 08 45 00 5.081109702587e-05 1.818989403546e-12 4.626000000000e+05
    -1.968342724609e+04-1.967344284058e+00 9.313225746155e-10 0.000000000000e+00
    -2.032655761719e+03-9.883995056152e-01 0.000000000000e+00-2.000000000000e+00
     1.607180371094e+04-2.541979789734e+00-9.313225746155e-10 0.000000000000e+00
R09 2019 01 25 09 15 00 5.081389099360e-05 1.818989403546e-12 4.644000000000e+05
    -2.278179638672e+04-1.433750152588e+00 9.313225746155e-10 0.000000000000e+00
    -3.306893066406e+03-4.436359405518e-01-9.313225746155e-10-2.000000000000e+00
     1.093283154297e+04-3.130926132202e+00 0.000000000000e+00 0.000000000000e+00
R09 2019 01 25 14 45 00 5.084928125143e-05 2.728484105319e-12 4.857600000000e+05
     5.161142089844e+03 7.105703353882e-01 0.000000000000e+00 0.000000000000e+00
    -2.175805175781e+04-1.533485412598e+00 9.313225746155e-10-2.000000000000e+00
    -1.231894238281e+04 2.997230529785e+00 0.000000000000e+00 0.000000000000e+00
R09 2019 01 25 15 15 00 5.085300654173e-05 2.728484105319e-12 4.860000000000e+05
     5.959054687500e+03 2.002353668213e-01 9.313225746155e-10 0.000000000000e+00
    -2.396147802734e+04-8.801450729370e-01 9.313225746155e-10-2.000000000000e+00
    -6.518519531250e+03 3.405907630920e+00 0.000000000000e+00 0.000000000000e+00
R09 2019 01 25 15 45 00 5.085766315460e-05 2.728484105319e-12 4.878000000000e+05
     5.991969726562e+03-1.279869079590e-01 1.862645149231e-09 0.000000000000e+00
    -2.482808740234e+04-6.358623504639e-02 9.313225746155e-10-2.000000000000e+00
    -2.156806640625e+02 3.551920890808e+00-9.313225746155e-10 0.000000000000e+00
R09 2019 01 25 16 15 00 5.086231976748e-05 2.728484105319e-12 4.896000000000e+05
     5.637941894531e+03-2.249326705933e-01 1.862645149231e-09 0.000000000000e+00
    -2.415442675781e+04 8.125419616699e-01 9.313225746155e-10-2.000000000000e+00
     6.103799316406e+03 3.424312591553e+00-1.862645149231e-09 0.000000000000e+00
R09 2019 01 25 16 45 00 5.086697638035e-05 2.728484105319e-12 4.914000000000e+05
     5.325701660156e+03-8.421134948730e-02 1.862645149231e-09 0.000000000000e+00
    -2.193602929688e+04 1.633767127991e+00 0.000000000000e+00-2.000000000000e+00
     1.195322021484e+04 3.033008575439e+00-1.862645149231e-09 0.000000000000e+00
R09 2019 01 25 17 15 00 5.087163299322e-05 2.728484105319e-12 4.932000000000e+05
     5.455825195312e+03 2.569875717163e-01 1.862645149231e-09 0.000000000000e+00
    -1.837056933594e+04 2.292982101440e+00 0.000000000000e+00-2.000000000000e+00
     1.688206250000e+04 2.408025741577e+00-2.793967723846e-09 0.000000000000e+00
R09 2019 01 25 17 45 00 5.087535828352e-05 2.728484105319e-12 4.950000000000e+05
     6.327033203125e+03 7.243118286133e-01 1.862645149231e-09 0.000000000000e+00
    -1.382890429688e+04 2.707451820374e+00 0.000000000000e+00-2.000000000000e+00
     2.051031982422e+04 1.597202301025e+00-2.793967723846e-09 0.000000000000e+00
R09 2019 01 25 18 15 00 5.088001489639e-05 1.818989403546e-12 4.968000000000e+05
     8.079830078125e+03 1.218838691711e+00 9.313225746155e-10 0.000000000000e+00
    -8.798677734375e+03 2.831873893738e+00 0.000000000000e+00-2.000000000000e+00
     2.255754589844e+04 6.626300811768e-01-2.793967723846e-09 0.000000000000e+00
R09 2019 01 25 18 45 00 5.088374018669e-05 1.818989403546e-12 4.986000000000e+05
     1.066689941406e+04 1.633795738220e+00 9.313225746155e-10 0.000000000000e+00
    -3.809599121094e+03 2.665398597717e+00 0.000000000000e+00-2.000000000000e+00
     2.286448193359e+04-3.239746093750e-01-2.793967723846e-09 0.000000000000e+00
R09 2019 01 25 19 15 00 5.088746547699e-05 1.818989403546e-12 5.004000000000e+05
     1.385532177734e+04 1.872713088989e+00 0.000000000000e+00 0.000000000000e+00
     6.475161132812e+02 2.251443862915e+00 0.000000000000e+00-2.000000000000e+00
     2.140563232422e+04-1.286639213562e+00-1.862645149231e-09 0.000000000000e+00
R09 2019 01 25 19 45 00 5.089398473501e-05 1.818989403546e-12 5.022000000000e+05
     1.726050439453e+04 1.866024971008e+00 0.000000000000e+00 0.000000000000e+00
     4.194817382812e+03 1.670317649841e+00 0.000000000000e+00-2.000000000000e+00
     1.829176562500e+04-2.150905609131e+00-9.313225746155e-10 0.000000000000e+00
R09 2019 01 25 20 15 00 5.089677870274e-05 1.818989403546e-12 5.040000000000e+05
     2.040651123047e+04 1.583372116089e+00 0.000000000000e+00 0.000000000000e+00
     6.622488281250e+03 1.025778770447e+00 0.000000000000e+00-2.000000000000e+00
     1.376198583984e+04-2.849573135376e+00-9.313225746155e-10 0.000000000000e+00
R10 2019 01 25 00 15 00 4.035886377096e-05 0.000000000000e+00 4.320000000000e+05
     2.370835205078e+04-2.439165115356e-01 0.000000000000e+00 0.000000000000e+00
    -9.208484863281e+03-1.110258102417e-01 2.793967723846e-09-7.000000000000e+00
    -1.350092285156e+03-3.588094711304e+00 9.313225746155e-10 0.000000000000e+00
R10 2019 01 25 08 15 00 4.038680344820e-05 0.000000000000e+00 4.617600000000e+05
    -2.358225097656e+03-2.461957931519e+00-9.313225746155e-10 0.000000000000e+00
     1.136174853516e+04-1.909418106079e+00 9.313225746155e-10-7.000000000000e+00
     2.270320947266e+04 6.923465728760e-01-2.793967723846e-09 0.000000000000e+00
R10 2019 01 25 08 45 00 4.038773477077e-05 0.000000000000e+00 4.635000000000e+05
    -7.097874023438e+03-2.761646270752e+00 0.000000000000e+00 0.000000000000e+00
     8.223632812500e+03-1.546635627747e+00 9.313225746155e-10-7.000000000000e+00
     2.305425146484e+04-3.050575256348e-01-2.793967723846e-09 0.000000000000e+00
R10 2019 01 25 09 15 00 4.038866609335e-05 0.000000000000e+00 4.644000000000e+05
    -1.213008593750e+04-2.779350280762e+00 0.000000000000e+00 0.000000000000e+00
     5.875568847656e+03-1.048356056213e+00 0.000000000000e+00-7.000000000000e+00
     2.161847949219e+04-1.280043601990e+00-1.862645149231e-09 0.000000000000e+00
R10 2019 01 25 09 45 00 4.038959741592e-05 0.000000000000e+00 4.662000000000e+05
    -1.691953515625e+04-2.491999626160e+00 0.000000000000e+00 0.000000000000e+00
     4.466366210938e+03-5.221080780029e-01 0.000000000000e+00-7.000000000000e+00
     1.850525585938e+04-2.156673431396e+00-1.862645149231e-09 0.000000000000e+00
R10 2019 01 25 16 15 00 4.040263593197e-05 9.094947017729e-13 4.914600000000e+05
    -1.859288085938e+03-2.936077117920e-02 9.313225746155e-10 0.000000000000e+00
    -2.347740771484e+04-1.365278244019e+00 9.313225746155e-10-7.000000000000e+00
    -9.913535644531e+03 3.238656044006e+00 0.000000000000e+00 0.000000000000e+00
R10 2019 01 25 16 45 00 4.040542989969e-05 9.094947017729e-13 4.914000000000e+05
    -2.111922363281e+03-2.124147415161e-01 1.862645149231e-09 0.000000000000e+00
    -2.518152783203e+04-5.105895996094e-01 9.313225746155e-10-7.000000000000e+00
    -3.777563476562e+03 3.535052299500e+00 0.000000000000e+00 0.000000000000e+00
R10 2019 01 25 17 15 00 4.040729254484e-05 9.094947017729e-13 4.932000000000e+05
    -2.476226562500e+03-1.507339477539e-01 1.862645149231e-09 0.000000000000e+00
    -2.528704052734e+04 3.913440704346e-01 0.000000000000e+00-7.000000000000e+00
     2.649054199219e+03 3.559478759766e+00-9.313225746155e-10 0.000000000000e+00
R10 2019 01 25 17 45 00 4.041008651257e-05 9.094947017729e-13 4.950000000000e+05
    -2.510874023438e+03 1.489391326904e-01 1.862645149231e-09 0.000000000000e+00
    -2.381522802734e+04 1.222773551941e+00 0.000000000000e+00-7.000000000000e+00
     8.871643066406e+03 3.309746742249e+00-1.862645149231e-09 0.000000000000e+00
R10 2019 01 25 18 15 00 4.041194915771e-05 9.094947017729e-13 4.968000000000e+05
    -1.826925781250e+03 6.359281539917e-01 1.862645149231e-09 0.000000000000e+00
    -2.099162646484e+04 1.877552032471e+00 0.000000000000e+00-7.000000000000e+00
     1.441048144531e+04 2.804573059082e+00-1.862645149231e-09 0.000000000000e+00
